*******************************************************************************
JPL/HORIZONS                171 Ophelia (A877 AB)          2020-Jun-20 08:33:46
Rec #:     171 (+COV) Soln.date: 2020-Feb-22_15:19:36   # obs: 3126 (1894-2020)
 
IAU76/J2000 helio. ecliptic osc. elements (au, days, deg., period=Julian yrs):
 
  EPOCH=  2455247.5 ! 2010-Feb-20.00 (TDB)         Residual RMS= .28849
   EC= .1300693100537823   QR= 2.724208675285697   TP= 2455516.3817686266
   OM= 100.5504023788744   W=  57.31045261834503   IN= 2.546569342471915
   A= 3.131523817666575    MA= 312.1775467544479   ADIST= 3.538838960047453
   PER= 5.54168            N= .177856804           ANGMOM= .030182428
   DAN= 2.87648            DDN= 3.31115            L= 157.8351176
   B= 2.1430106            MOID= 1.73485005        TP= 2010-Nov-15.8817686266
 
Asteroid physical parameters (km, seconds, rotational period in hours):
   GM= n.a.                RAD= 65.404             ROTPER= 6.66535
   H= 8.6                  G= .150                 B-V= .695
                           ALBEDO= .076            STYP= C
 
ASTEROID comments: 
1: soln ref.= JPL#111, OCC=0
2: source=ORB
*******************************************************************************
 
 
*******************************************************************************
Ephemeris / WWW_USER Sat Jun 20 08:33:46 2020 Pasadena, USA      / Horizons
*******************************************************************************
Target body name: 171 Ophelia (A877 AB)           {source: JPL#111}
Center body name: Solar System Barycenter (0)     {source: DE431}
Center-site name: BODY CENTER
*******************************************************************************
Start time      : A.D. 1969-Jun-28 00:00:00.0000 TDB
Stop  time      : A.D. 2071-May-04 00:00:00.0000 TDB
Step-size       : 7200 minutes
*******************************************************************************
Center geodetic : 0.00000000,0.00000000,0.0000000 {E-lon(deg),Lat(deg),Alt(km)}
Center cylindric: 0.00000000,0.00000000,0.0000000 {E-lon(deg),Dxy(km),Dz(km)}
Center radii    : (undefined)                                                  
Small perturbers: Yes                             {source: SB431-N16}
Output units    : AU-D
Output type     : GEOMETRIC cartesian states
Output format   : 2 (position and velocity)
Reference frame : Ecliptic of J2000.0
*******************************************************************************
Initial IAU76/J2000 heliocentric ecliptic osculating elements (au, days, deg.):
  EPOCH=  2455247.5 ! 2010-Feb-20.00 (TDB)         Residual RMS= .28849        
   EC= .1300693100537823   QR= 2.724208675285697   TP= 2455516.3817686266      
   OM= 100.5504023788744   W=  57.31045261834503   IN= 2.546569342471915       
  Equivalent ICRF heliocentric equatorial cartesian coordinates (au, au/d):
   X=-3.896756295431516E-01  Y= 2.630904231603005E+00  Z= 1.133779347699231E+00
  VX=-1.018512601640500E-02 VY=-2.479164758173703E-03 VZ=-5.672764884350194E-04
Asteroid physical parameters (km, seconds, rotational period in hours):        
   GM= n.a.                RAD= 65.404             ROTPER= 6.66535             
   H= 8.6                  G= .150                 B-V= .695                   
                           ALBEDO= .076            STYP= C                     
*******************************************************************************
            JDTDB,            Calendar Date (TDB),        delta-T,                      X,                      Y,                      Z,                     VX,                     VY,                     VZ,
******************************************************************************************************************************************************************************************************************
$$SOE
2451180.500000000, A.D. 1999-Jan-02 00:00:00.0000,      64.183916, -2.547670045004914E-01,  2.912040086866275E+00, -1.287632335779617E-02, -1.019470954553695E-02, -1.983645778569652E-03,  4.615823688951773E-04,
2451185.500000000, A.D. 1999-Jan-07 00:00:00.0000,      64.184060, -3.057013222252160E-01,  2.901689870839062E+00, -1.056658311732645E-02, -1.017849742493283E-02, -2.156501955611072E-03,  4.622915078838589E-04,
2451190.500000000, A.D. 1999-Jan-12 00:00:00.0000,      64.184204, -3.565467532719985E-01,  2.890474504057495E+00, -8.253631943182106E-03, -1.015915005585376E-02, -2.329696036518966E-03,  4.628664496188638E-04,
2451195.500000000, A.D. 1999-Jan-17 00:00:00.0000,      64.184348, -4.072875500923964E-01,  2.878392448848945E+00, -5.938145180070477E-03, -1.013663911232786E-02, -2.503167045142933E-03,  4.633054573724949E-04,
2451200.500000000, A.D. 1999-Jan-22 00:00:00.0000,      64.184489, -4.579078265088565E-01,  2.865442475970518E+00, -3.620806754170689E-03, -1.011093747948886E-02, -2.676852588439145E-03,  4.636068357752815E-04,
2451205.500000000, A.D. 1999-Jan-27 00:00:00.0000,      64.184625, -5.083915639328388E-01,  2.851623671650780E+00, -1.302308958933974E-03, -1.008201931870983E-02, -2.850688874021057E-03,  4.637689337863508E-04,
2451210.500000000, A.D. 1999-Feb-01 00:00:00.0000,      64.184755, -5.587226179099098E-01,  2.836935444536806E+00,  1.016647774077932E-03, -1.004986013323070E-02, -3.024610730499696E-03,  4.637901477084405E-04,
2451215.500000000, A.D. 1999-Feb-06 00:00:00.0000,      64.184879, -6.088847249938708E-01,  2.821377532532316E+00,  3.335355119535869E-03, -1.001443683411876E-02, -3.198551630730614E-03,  4.636689242447201E-04,
2451220.500000000, A.D. 1999-Feb-11 00:00:00.0000,      64.184998, -6.588615099512130E-01,  2.804950009512035E+00,  5.653097118068412E-03, -9.975727806415457E-03, -3.372443718093367E-03,  4.634037635946135E-04,
2451225.500000000, A.D. 1999-Feb-16 00:00:00.0000,      64.185110, -7.086364932964970E-01,  2.787653291896842E+00,  7.969150451561951E-03, -9.933712975340269E-03, -3.546217835921502E-03,  4.629932225856576E-04,
2451230.500000000, A.D. 1999-Feb-21 00:00:00.0000,      64.185214, -7.581930991586905E-01,  2.769488145073692E+00,  1.028278473419388E-02, -9.888373872457919E-03, -3.719803560162830E-03,  4.624359178368932E-04,
2451235.500000000, A.D. 1999-Feb-26 00:00:00.0000,      64.185307, -8.075146634781266E-01,  2.750455689644236E+00,  1.259326281934330E-02, -9.839693701749728E-03, -3.893129235220677E-03,  4.617305289403660E-04,
2451240.500000000, A.D. 1999-Mar-03 00:00:00.0000,      64.185389, -8.565844425332800E-01,  2.730557407486729E+00,  1.489984112238567E-02, -9.787657405408132E-03, -4.066122012752138E-03,  4.608758016257052E-04,
2451245.500000000, A.D. 1999-Mar-08 00:00:00.0000,      64.185460, -9.053856217946450E-01,  2.709795147616582E+00,  1.720176995919599E-02, -9.732251728755985E-03, -4.238707893509582E-03,  4.598705508817145E-04,
2451250.500000000, A.D. 1999-Mar-13 00:00:00.0000,      64.185522, -9.539013250998905E-01,  2.688171131828160E+00,  1.949829390027260E-02, -9.673465283856510E-03, -4.410811773173281E-03,  4.587136641006117E-04,
2451255.500000000, A.D. 1999-Mar-18 00:00:00.0000,      64.185573, -1.002114624144963E+00,  2.665687960096566E+00,  2.178865214077830E-02, -9.611288612414445E-03, -4.582357492399528E-03,  4.574041042926237E-04,
2451260.500000000, A.D. 1999-Mar-23 00:00:00.0000,      64.185613, -1.050008548288564E+00,  2.642348615721076E+00,  2.407207888662241E-02, -9.545714248127463E-03, -4.753267889931428E-03,  4.559409132684784E-04,
2451265.500000000, A.D. 1999-Mar-28 00:00:00.0000,      64.185639, -1.097566094665129E+00,  2.618156470196210E+00,  2.634780375621350E-02, -9.476736777574834E-03, -4.923464858519125E-03,  4.543232147246997E-04,
2451270.500000000, A.D. 1999-Apr-02 00:00:00.0000,      64.185651, -1.144770238597232E+00,  2.593115287794777E+00,  2.861505219745824E-02, -9.404352899064057E-03, -5.092869404312434E-03,  4.525502172640810E-04,
2451275.500000000, A.D. 1999-Apr-07 00:00:00.0000,      64.185652, -1.191603944296894E+00,  2.567229229844341E+00,  3.087304591976370E-02, -9.328561479336262E-03, -5.261401710134493E-03,  4.506212173772127E-04,
2451280.500000000, A.D. 1999-Apr-12 00:00:00.0000,      64.185641, -1.238050175845022E+00,  2.540502858677412E+00,  3.312100334084893E-02, -9.249363608119197E-03, -5.428981202721762E-03,  4.485356023860486E-04,
2451285.500000000, A.D. 1999-Apr-17 00:00:00.0000,      64.185620, -1.284091908438243E+00,  2.512941141235603E+00,  3.535814004817250E-02, -9.166762650526451E-03, -5.595526623871894E-03,  4.462928533435347E-04,
2451290.500000000, A.D. 1999-Apr-22 00:00:00.0000,      64.185587, -1.329712139892351E+00,  2.484549452308654E+00,  3.758366927472839E-02, -9.080764297304384E-03, -5.760956105306380E-03,  4.438925478797339E-04,
2451295.500000000, A.D. 1999-Apr-27 00:00:00.0000,      64.185541, -1.374893902391499E+00,  2.455333577390510E+00,  3.979680238890571E-02, -8.991376612863020E-03, -5.925187246930782E-03,  4.413343629790843E-04,
2451300.500000000, A.D. 1999-May-02 00:00:00.0000,      64.185482, -1.419620274471637E+00,  2.425299715136330E+00,  4.199674939802289E-02, -8.898610080900047E-03, -6.088137198139577E-03,  4.386180776686717E-04,
2451305.500000000, A.D. 1999-May-07 00:00:00.0000,      64.185413, -1.463874393225415E+00,  2.394454479406000E+00,  4.418271946504061E-02, -8.802477647299207E-03, -6.249722741880178E-03,  4.357435755968937E-04,
2451310.500000000, A.D. 1999-May-12 00:00:00.0000,      64.185335, -1.507639466713960E+00,  2.362804900880754E+00,  4.635392143784891E-02, -8.702994759922335E-03, -6.409860381324206E-03,  4.327108474861287E-04,
2451315.500000000, A.D. 1999-May-17 00:00:00.0000,      64.185249, -1.550898786569107E+00,  2.330358428240016E+00,  4.850956439049221E-02, -8.600179404939642E-03, -6.568466429113626E-03,  4.295199934492032E-04,
